{
  "type": "FeatureCollection",
  "features": [
    {
      "type": "Feature",
      "properties": {
        "norad_id": 66760,
        "name": "TRANSPORTER-15CY",
        "group": "last-30-days",
        "lat": 50.78196611422487,
        "lon": 60.77969284863839,
        "alt_km": 506.03692579382005,
        "timestamp": "2025-12-24T09:46:29.715358+00:00",
        "meta_object_name": "TRANSPORTER-15CY",
        "meta_object_id": "2025-276CY",
        "meta_epoch": "2025-12-24T03:13:19.606944",
        "meta_mean_motion": 15.18206542,
        "meta_eccentricity": 0.0001729,
        "meta_inclination": 97.4395,
        "meta_ra_of_asc_node": 69.7247,
        "meta_arg_of_pericenter": 113.0894,
        "meta_mean_anomaly": 247.0523,
        "meta_ephemeris_type": 0,
        "meta_classification_type": "U",
        "meta_norad_cat_id": 66760,
        "meta_element_set_no": 999,
        "meta_rev_at_epoch": 385,
        "meta_bstar": 0.00048093,
        "meta_mean_motion_dot": 9.775e-05,
        "meta_mean_motion_ddot": 0,
        "tle_line1": "1 66760U 25276CY  25358.13425471  .00009775  00000+0  48093-3 0  9991",
        "tle_line2": "2 66760  97.4395  69.7247 0001729 113.0894 247.0523 15.18206542  3857"
      },
      "geometry": {
        "type": "Point",
        "coordinates": [
          60.77969284863839,
          50.78196611422487
        ]
      }
    },
    {
      "type": "Feature",
      "properties": {
        "norad_id": 66761,
        "name": "TRANSPORTER-15CZ",
        "group": "last-30-days",
        "lat": 65.69587756416426,
        "lon": 53.18053500590491,
        "alt_km": 503.291474470444,
        "timestamp": "2025-12-24T09:46:29.715371+00:00",
        "meta_object_name": "TRANSPORTER-15CZ",
        "meta_object_id": "2025-276CZ",
        "meta_epoch": "2025-12-24T03:09:20.776608",
        "meta_mean_motion": 15.1849932,
        "meta_eccentricity": 0.0001729,
        "meta_inclination": 97.4396,
        "meta_ra_of_asc_node": 69.7282,
        "meta_arg_of_pericenter": 122.8082,
        "meta_mean_anomaly": 237.3319,
        "meta_ephemeris_type": 0,
        "meta_classification_type": "U",
        "meta_norad_cat_id": 66761,
        "meta_element_set_no": 999,
        "meta_rev_at_epoch": 385,
        "meta_bstar": 0.00054536,
        "meta_mean_motion_dot": 0.0001119,
        "meta_mean_motion_ddot": 0,
        "tle_line1": "1 66761U 25276CZ  25358.13149047  .00011190  00000+0  54536-3 0  9997",
        "tle_line2": "2 66761  97.4396  69.7282 0001729 122.8082 237.3319 15.18499320  3858"
      },
      "geometry": {
        "type": "Point",
        "coordinates": [
          53.18053500590491,
          65.69587756416426
        ]
      }
    },
    {
      "type": "Feature",
      "properties": {
        "norad_id": 66762,
        "name": "HYDROGNSS-1",
        "group": "last-30-days",
        "lat": -25.770775005203774,
        "lon": 73.58118517104704,
        "alt_km": 519.6498809956165,
        "timestamp": "2025-12-24T09:46:29.715383+00:00",
        "meta_object_name": "HYDROGNSS-1",
        "meta_object_id": "2025-276DA",
        "meta_epoch": "2025-12-24T03:33:29.791872",
        "meta_mean_motion": 15.17308644,
        "meta_eccentricity": 0.0001006,
        "meta_inclination": 97.4406,
        "meta_ra_of_asc_node": 69.7093,
        "meta_arg_of_pericenter": 249.5865,
        "meta_mean_anomaly": 110.526,
        "meta_ephemeris_type": 0,
        "meta_classification_type": "U",
        "meta_norad_cat_id": 66762,
        "meta_element_set_no": 999,
        "meta_rev_at_epoch": 385,
        "meta_bstar": 0.00029828,
        "meta_mean_motion_dot": 5.88e-05,
        "meta_mean_motion_ddot": 0,
        "tle_line1": "1 66762U 25276DA  25358.14826148  .00005880  00000+0  29828-3 0  9998",
        "tle_line2": "2 66762  97.4406  69.7093 0001006 249.5865 110.5260 15.17308644  3859"
      },
      "geometry": {
        "type": "Point",
        "coordinates": [
          73.58118517104704,
          -25.770775005203774
        ]
      }
    },
    {
      "type": "Feature",
      "properties": {
        "norad_id": 66763,
        "name": "HYDROGNSS-2",
        "group": "last-30-days",
        "lat": -14.151823344648227,
        "lon": 71.86157190010321,
        "alt_km": 518.6154213471518,
        "timestamp": "2025-12-24T09:46:29.715395+00:00",
        "meta_object_name": "HYDROGNSS-2",
        "meta_object_id": "2025-276DB",
        "meta_epoch": "2025-12-22T10:21:31.448736",
        "meta_mean_motion": 15.17420203,
        "meta_eccentricity": 0.00013861,
        "meta_inclination": 97.4416,
        "meta_ra_of_asc_node": 68.032,
        "meta_arg_of_pericenter": 244.5475,
        "meta_mean_anomaly": 115.5615,
        "meta_ephemeris_type": 0,
        "meta_classification_type": "U",
        "meta_norad_cat_id": 66763,
        "meta_element_set_no": 999,
        "meta_rev_at_epoch": 359,
        "meta_bstar": 0.00019983047,
        "meta_mean_motion_dot": 3.929e-05,
        "meta_mean_motion_ddot": 0,
        "tle_line1": "1 66763U 25276DB  25356.43161399  .00003929  00000+0  19983-3 0  9992",
        "tle_line2": "2 66763  97.4416  68.0320 0001386 244.5475 115.5615 15.17420203  3595"
      },
      "geometry": {
        "type": "Point",
        "coordinates": [
          71.86157190010321,
          -14.151823344648227
        ]
      }
    },
    {
      "type": "Feature",
      "properties": {
        "norad_id": 66764,
        "name": "TRANSPORTER-15DC",
        "group": "last-30-days",
        "lat": 10.99847036248667,
        "lon": 68.52203841314909,
        "alt_km": 515.8009081304899,
        "timestamp": "2025-12-24T09:46:29.715407+00:00",
        "meta_object_name": "TRANSPORTER-15DC",
        "meta_object_id": "2025-276DC",
        "meta_epoch": "2025-12-24T03:23:48.427008",
        "meta_mean_motion": 15.17701886,
        "meta_eccentricity": 0.0002156,
        "meta_inclination": 97.4404,
        "meta_ra_of_asc_node": 69.7163,
        "meta_arg_of_pericenter": 189.134,
        "meta_mean_anomaly": 170.9855,
        "meta_ephemeris_type": 0,
        "meta_classification_type": "U",
        "meta_norad_cat_id": 66764,
        "meta_element_set_no": 999,
        "meta_rev_at_epoch": 385,
        "meta_bstar": 0.00045007,
        "meta_mean_motion_dot": 9.011e-05,
        "meta_mean_motion_ddot": 0,
        "tle_line1": "1 66764U 25276DC  25358.14153272  .00009011  00000+0  45007-3 0  9998",
        "tle_line2": "2 66764  97.4404  69.7163 0002156 189.1340 170.9855 15.17701886  3856"
      },
      "geometry": {
        "type": "Point",
        "coordinates": [
          68.52203841314909,
          10.99847036248667
        ]
      }
    },
    {
      "type": "Feature",
      "properties": {
        "norad_id": 66765,
        "name": "TRANSPORTER-15DD",
        "group": "last-30-days",
        "lat": 81.80292008608103,
        "lon": 4.864386651170555,
        "alt_km": 500.91735457062714,
        "timestamp": "2025-12-24T09:46:29.715419+00:00",
        "meta_object_name": "TRANSPORTER-15DD",
        "meta_object_id": "2025-276DD",
        "meta_epoch": "2025-12-24T03:04:13.025856",
        "meta_mean_motion": 15.18759286,
        "meta_eccentricity": 0.0002004,
        "meta_inclination": 97.442,
        "meta_ra_of_asc_node": 69.7404,
        "meta_arg_of_pericenter": 116.7933,
        "meta_mean_anomaly": 243.3506,
        "meta_ephemeris_type": 0,
        "meta_classification_type": "U",
        "meta_norad_cat_id": 66765,
        "meta_element_set_no": 999,
        "meta_rev_at_epoch": 385,
        "meta_bstar": 0.00063843,
        "meta_mean_motion_dot": 0.00013213,
        "meta_mean_motion_ddot": 0,
        "tle_line1": "1 66765U 25276DD  25358.12792854  .00013213  00000+0  63843-3 0  9999",
        "tle_line2": "2 66765  97.4420  69.7404 0002004 116.7933 243.3506 15.18759286  3855"
      },
      "geometry": {
        "type": "Point",
        "coordinates": [
          4.864386651170555,
          81.80292008608103
        ]
      }
    },
    {
      "type": "Feature",
      "properties": {
        "norad_id": 66766,
        "name": "TRANSPORTER-15DE",
        "group": "last-30-days",
        "lat": 68.47701672981066,
        "lon": 50.64885793667121,
        "alt_km": 502.5956951720036,
        "timestamp": "2025-12-24T09:46:29.715430+00:00",
        "meta_object_name": "TRANSPORTER-15DE",
        "meta_object_id": "2025-276DE",
        "meta_epoch": "2025-12-24T03:08:33.383616",
        "meta_mean_motion": 15.18429587,
        "meta_eccentricity": 0.0002025,
        "meta_inclination": 97.4361,
        "meta_ra_of_asc_node": 69.7176,
        "meta_arg_of_pericenter": 87.1876,
        "meta_mean_anomaly": 272.959,
        "meta_ephemeris_type": 0,
        "meta_classification_type": "U",
        "meta_norad_cat_id": 66766,
        "meta_element_set_no": 999,
        "meta_rev_at_epoch": 385,
        "meta_bstar": 0.00051119,
        "meta_mean_motion_dot": 0.00010463,
        "meta_mean_motion_ddot": 0,
        "tle_line1": "1 66766U 25276DE  25358.13094194  .00010463  00000+0  51119-3 0  9990",
        "tle_line2": "2 66766  97.4361  69.7176 0002025  87.1876 272.9590 15.18429587  3855"
      },
      "geometry": {
        "type": "Point",
        "coordinates": [
          50.64885793667121,
          68.47701672981066
        ]
      }
    }
  ]
}